{
  "norad_id": 47632,
  "name": "STARLINK-1992",
  "history": [
    {
      "epoch": "2026-03-28T17:15:30.217536Z",
      "apogee_km": 475.90417318595246,
      "perigee_km": 474.6695974072545,
      "latitude_deg": 3.330605682863055e-05,
      "longitude_deg": 159.01010551336216,
      "height_km": 476.38190547631996,
      "semi_major_axis_km": 6853.423885296604,
      "eccentricity": 9.007e-05,
      "inclination_deg": 53.1588,
      "raan_deg": 244.0215,
      "arg_perigee_deg": 108.5651,
      "mean_anomaly_deg": 251.5448,
      "mean_motion_rev_day": 15.30175948
    }
  ]
}