{"fetched_at":"2026-03-30T06:02:59Z","count":15439,"tles":[{"name":"STARLINK-1992","line1":"1 47632U 21012N   26087.71909974 -.00003819  00000+0 -11699-3 0  9998","line2":"2 47632  53.1588 244.0215 0000900 108.5651 251.5448 15.30175948284272","category":"Starlink"}]}